STARLINK-30532          
1 58070U 23158V   26068.25529094  .00003865  00000+0  15373-3 0  9990
2 58070  43.0022  29.4830 0000765 276.0895  83.9869 15.26732748133504
LIME                    
1 62648U 25009AR  26068.73906781  .00013254  00000+0  47723-3 0  9995
2 62648  97.3985 151.4831 0001635  35.9029 324.2320 15.28703313 63766
